CTC2_L_00458001-01
1 27696U 24828WK  26070.40848380  .00000000  00000+0  00000-0 0  9993
2 27696  43.0000   0.0000 0000000   0.0000   0.0000 15.55740824    11
CTC2_L_00458002-01
1 27697U 23303HQ  26070.40848380  .00000000  00000+0  00000-0 0  9991
2 27697  43.0000  12.0000 0000000   0.0000  48.0000 15.55740824    17
CTC2_L_00458003-01
1 27698U 26775LU  26070.40848380  .00000000  00000+0  00000-0 0  9998
2 27698  43.0000  24.0000 0000000   0.0000  96.0000 15.55740824    14
CTC2_L_00458004-01
1 27699U 22623OT  26070.40848380  .00000000  00000+0  00000-0 0  9997
2 27699  43.0000  36.0000 0000000   0.0000 144.0000 15.55740824    12
CTC2_L_00458005-01
1 27700U 24841ZD  26070.40848380  .00000000  00000+0  00000-0 0  9994
2 27700  43.0000  48.0000 0000000   0.0000 192.0000 15.55740824    11
CTC2_L_00458006-01
1 27701U 25760Z   26070.40848380  .00000000  00000+0  00000-0 0  9996
2 27701  43.0000  60.0000 0000000   0.0000 240.0000 15.55740824    10
CTC2_L_00458007-01
1 27702U 22840Q   26070.40848380  .00000000  00000+0  00000-0 0  9993
2 27702  43.0000  72.0000 0000000   0.0000 288.0000 15.55740824    16
CTC2_L_00458008-01
1 27703U 25759PL  26070.40848380  .00000000  00000+0  00000-0 0  9996
2 27703  43.0000  84.0000 0000000   0.0000 336.0000 15.55740824    14
CTC2_L_00458009-01
1 27704U 26935CE  26070.40848380  .00000000  00000+0  00000-0 0  9994
2 27704  43.0000  96.0000 0000000   0.0000  24.0000 15.55740824    12
CTC2_L_00458010-01
1 27705U 22995CD  26070.40848380  .00000000  00000+0  00000-0 0  9997
2 27705  43.0000 108.0000 0000000   0.0000  72.0000 15.55740824    10
CTC2_L_00458011-01
1 27706U 25326XZ  26070.40848380  .00000000  00000+0  00000-0 0  9999
2 27706  43.0000 120.0000 0000000   0.0000 120.0000 15.55740824    19
CTC2_L_00458012-01
1 27707U 24771CI  26070.40848380  .00000000  00000+0  00000-0 0  9993
2 27707  43.0000 132.0000 0000000   0.0000 168.0000 15.55740824    15
CTC2_L_00458013-01
1 27708U 26382IC  26070.40848380  .00000000  00000+0  00000-0 0  9994
2 27708  43.0000 144.0000 0000000   0.0000 216.0000 15.55740824    13
CTC2_L_00458014-01
1 27709U 22783SU  26070.40848380  .00000000  00000+0  00000-0 0  9996
2 27709  43.0000 156.0000 0000000   0.0000 264.0000 15.55740824    10
CTC2_L_00458015-01
1 27710U 23503ZB  26070.40848380  .00000000  00000+0  00000-0 0  9999
2 27710  43.0000 168.0000 0000000   0.0000 312.0000 15.55740824    19
CTC2_L_00458016-01
1 27711U 23235UK  26070.40848380  .00000000  00000+0  00000-0 0  9992
2 27711  43.0000 180.0000 0000000   0.0000   0.0000 15.55740824    18
CTC2_L_00458017-01
1 27712U 22498BD  26070.40848380  .00000000  00000+0  00000-0 0  9993
2 27712  43.0000 192.0000 0000000   0.0000  48.0000 15.55740824    14
CTC2_L_00458018-01
1 27713U 25945BF  26070.40848380  .00000000  00000+0  00000-0 0  9994
2 27713  43.0000 204.0000 0000000   0.0000  96.0000 15.55740824    12
CTC2_L_00458019-01
1 27714U 25839HM  26070.40848380  .00000000  00000+0  00000-0 0  9997
2 27714  43.0000 216.0000 0000000   0.0000 144.0000 15.55740824    10
CTC2_L_00458020-01
1 27715U 24802CM  26070.40848380  .00000000  00000+0  00000-0 0  9997
2 27715  43.0000 228.0000 0000000   0.0000 192.0000 15.55740824    17
CTC2_L_00458021-01
1 27716U 25636TB  26070.40848380  .00000000  00000+0  00000-0 0  9994
2 27716  43.0000 240.0000 0000000   0.0000 240.0000 15.55740824    16
CTC2_L_00458022-01
1 27717U 26574DQ  26070.40848380  .00000000  00000+0  00000-0 0  9997
2 27717  43.0000 252.0000 0000000   0.0000 288.0000 15.55740824    12
CTC2_L_00458023-01
1 27718U 24134CL  26070.40848380  .00000000  00000+0  00000-0 0  9998
2 27718  43.0000 264.0000 0000000   0.0000 336.0000 15.55740824    10
CTC2_L_00458024-01
1 27719U 25960PC  26070.40848380  .00000000  00000+0  00000-0 0  9997
2 27719  43.0000 276.0000 0000000   0.0000  24.0000 15.55740824    18
CTC2_L_00458025-01
1 27720U 22210GA  26070.40848380  .00000000  00000+0  00000-0 0  9994
2 27720  43.0000 288.0000 0000000   0.0000  72.0000 15.55740824    16
CTC2_L_00458026-01
1 27721U 26444PQ  26070.40848380  .00000000  00000+0  00000-0 0  9998
2 27721  43.0000 300.0000 0000000   0.0000 120.0000 15.55740824    16
CTC2_L_00458027-01
1 27722U 23271PQ  26070.40848380  .00000000  00000+0  00000-0 0  9994
2 27722  43.0000 312.0000 0000000   0.0000 168.0000 15.55740824    12
CTC2_L_00458028-01
1 27723U 26326YR  26070.40848380  .00000000  00000+0  00000-0 0  9999
2 27723  43.0000 324.0000 0000000   0.0000 216.0000 15.55740824    10
CTC2_L_00458029-01
1 27724U 22224QC  26070.40848380  .00000000  00000+0  00000-0 0  9993
2 27724  43.0000 336.0000 0000000   0.0000 264.0000 15.55740824    17
CTC2_L_00458030-01
1 27725U 25044V   26070.40848380  .00000000  00000+0  00000-0 0  9997
2 27725  43.0000 348.0000 0000000   0.0000 312.0000 15.55740824    15
